OBJECT_NAME,OBJECT_ID,EPOCH,MEAN_MOTION,ECCENTRICITY,INCLINATION,RA_OF_ASC_NODE,ARG_OF_PERICENTER,MEAN_ANOMALY,EPHEMERIS_TYPE,CLASSIFICATION_TYPE,NORAD_CAT_ID,ELEMENT_SET_NO,REV_AT_EPOCH,BSTAR,MEAN_MOTION_DOT,MEAN_MOTION_DDOT
DMSP 5D-3 F16 (USA 172),2003-048A,2026-07-08T23:05:08.159136,14.14484945,.00082034,98.9886,213.9337,86.5171,27.8401,0,U,28054,999,17256,.3053905E-5,-.39E-6,0
METEOSAT-9 (MSG-2),2005-049B,2026-07-08T04:39:51.787296,1.00269147,.00021217,9.4059,53.9555,359.9500,347.9048,0,U,28912,999,720,0,.132E-5,0
DMSP 5D-3 F17 (USA 191),2006-050A,2026-07-08T22:46:12.003456,14.14995892,.0010101,98.7383,196.0738,0.9288,359.1902,0,U,29522,999,1550,.10975074E-4,-.22E-6,0
FENGYUN 3A,2008-026A,2026-07-08T19:50:27.858048,14.19575606,.00098272,98.6887,130.2555,68.3005,291.9217,0,U,32958,999,93847,.3423637E-4,.29E-6,0
GOES 14,2009-033A,2026-07-08T21:09:22.082976,1.00101502,.00019672,1.7425,82.7772,36.9440,253.4238,0,U,35491,999,680,0,-.338E-5,0
DMSP 5D-3 F18 (USA 210),2009-057A,2026-07-08T22:06:59.123232,14.14908712,.00108488,98.9050,170.6447,183.2334,176.8771,0,U,35951,999,86266,.133862E-3,.214E-5,0
EWS-G2 (GOES 15),2010-008A,2026-07-08T15:42:43.388640,1.00268187,.00052667,1.3332,82.5528,51.8387,91.2884,0,U,36411,999,5985,0,.35E-6,0
COMS 1,2010-032A,2026-07-08T08:30:55.567584,0.99169315,.00113597,4.8563,75.1008,14.7290,313.4314,0,U,36744,999,5129,0,-.198E-5,0
FENGYUN 3B,2010-059A,2026-07-08T22:56:15.180000,14.14844564,.00230159,98.9609,236.0613,123.3966,359.2357,0,U,37214,999,81050,-.17934626E-3,-.392E-5,0
SUOMI NPP,2011-061A,2026-07-08T23:30:48.974400,14.19521789,.00005689,98.7956,130.7074,259.4010,100.7102,0,U,37849,999,76153,.36600975E-4,.33E-6,0
METEOSAT-10 (MSG-3),2012-035B,2026-07-08T20:32:38.783616,1.00269845,.00011939,4.7199,60.9088,18.9773,155.1539,0,U,38552,999,5107,0,.3E-7,0
METOP-B,2012-049A,2026-07-08T22:34:11.448192,14.21445184,.00010813,98.6492,241.0044,294.2681,65.8384,0,U,38771,999,71635,.44875627E-4,.55E-6,0
INSAT-3D,2013-038B,2026-07-08T21:09:22.082976,1.00271695,.00005133,1.9789,82.2705,69.6620,221.7652,0,U,39216,999,4729,0,-.326E-5,0
FENGYUN 3C,2013-052A,2026-07-08T22:51:41.038848,14.15759881,.00139522,98.4993,162.8294,324.9965,35.0292,0,U,39260,999,66164,.49312087E-4,.55E-6,0
METEOR-M 2,2014-037A,2026-07-08T23:11:42.370368,14.21468468,.00055254,98.5130,164.9345,346.4764,13.6265,0,U,40069,999,62241,.64090637E-4,.98E-6,0
HIMAWARI-8,2014-060A,2026-07-08T21:12:44.259840,1.00269902,.00008401,0.0340,282.2788,203.5232,259.8728,0,U,40267,999,4297,0,-.262E-5,0
FENGYUN 2G,2014-090A,2026-07-08T20:02:21.591168,1.00263286,.00040075,5.6900,72.5590,150.4757,103.7449,0,U,40367,999,4221,0,-.29E-5,0
METEOSAT-11 (MSG-4),2015-034A,2026-07-08T18:52:36.300864,1.00269859,.00022631,3.2540,70.9760,351.5341,156.6363,0,U,40732,999,743,0,.73E-6,0
ELEKTRO-L 2,2015-074A,2026-07-08T10:12:33.980256,1.00273098,.00006934,6.7437,70.2631,230.4230,124.3160,0,U,41105,999,3871,0,-.107E-5,0
SENTINEL-3A,2016-011A,2026-07-08T22:57:49.949568,14.26738595,.00014024,98.6239,257.0268,92.1258,268.0083,0,U,41335,999,54116,.38311854E-4,.49E-6,0
INSAT-3DR,2016-054A,2026-07-08T21:59:18.568896,1.00272097,.00105212,0.0533,89.1958,181.3413,60.1525,0,U,41752,999,3603,0,-.63E-6,0
HIMAWARI-9,2016-064A,2026-07-08T21:12:44.259840,1.00272459,.0002233,0.0189,30.1650,142.4769,213.1400,0,U,41836,999,3542,0,0,0
GOES 16,2016-071A,2026-07-08T21:45:26.124768,1.00271303,.00004971,0.3915,85.5987,81.5281,341.3995,0,U,41866,999,3532,0,-.77E-6,0
FENGYUN 4A,2016-077A,2026-07-09T05:41:07.031616,1.00271492,.0008403,2.3752,80.0426,158.8219,257.3741,0,U,41882,999,3515,0,-.345E-5,0
CYGFM05,2016-078A,2026-07-08T21:55:07.170816,15.57638566,.00072114,34.9557,116.6186,337.4680,22.5727,0,U,41884,999,53214,.24087788E-3,.18419E-3,0
CYGFM04,2016-078B,2026-07-08T22:36:45.998784,15.62789942,.00052516,34.9319,82.9929,16.2168,343.8725,0,U,41885,999,53240,.25117925E-3,.23427E-3,0
CYGFM02,2016-078C,2026-07-08T23:07:29.356608,15.66010645,.00059918,34.9400,76.7259,20.6151,339.4817,0,U,41886,999,53258,.26775611E-3,.2842E-3,0
CYGFM01,2016-078D,2026-07-08T21:24:53.944992,15.58347320,.00071461,34.9386,117.6352,331.1338,28.8991,0,U,41887,999,53209,.23987106E-3,.18843E-3,0
CYGFM08,2016-078E,2026-07-08T22:35:39.315264,15.61190986,.0007378,34.9421,96.2986,4.9476,355.1322,0,U,41888,999,53237,.24692786E-3,.21644E-3,0
CYGFM07,2016-078G,2026-07-08T21:34:48.448704,15.61296732,.00056002,34.9441,84.9024,16.9234,343.1678,0,U,41890,999,53239,.24760183E-3,.2178E-3,0
CYGFM03,2016-078H,2026-07-08T22:25:19.274304,15.61285351,.0005639,34.9394,86.5997,2.7033,357.3722,0,U,41891,999,53237,.2416941E-3,.21249E-3,0
