DMSP 5D-3 F16 (USA 172) 
1 28054U 03048A   26189.96189999 -.00000039  00000+0  30539-5 0  9997
2 28054  98.9886 213.9337 0008203  86.5171  27.8401 14.14484945172565
METEOSAT-9 (MSG-2)      
1 28912U 05049B   26189.19434939  .00000132  00000+0  00000+0 0  9992
2 28912   9.4059  53.9555 0002121 359.9500 347.9048  1.00269147  7204
DMSP 5D-3 F17 (USA 191) 
1 29522U 06050A   26189.94875004 -.00000022  00000+0  10975-4 0  9994
2 29522  98.7383 196.0738 0010101   0.9288 359.1902 14.14995892 15506
FENGYUN 3A              
1 32958U 08026A   26189.82671132  .00000029  00000+0  34236-4 0  9991
2 32958  98.6887 130.2555 0009827  68.3005 291.9217 14.19575606938470
GOES 14                 
1 35491U 09033A   26189.88150559 -.00000338  00000+0  00000+0 0  9997
2 35491   1.7425  82.7772 0001967  36.9440 253.4238  1.00101502  6806
DMSP 5D-3 F18 (USA 210) 
1 35951U 09057A   26189.92151763  .00000214  00000+0  13386-3 0  9994
2 35951  98.9050 170.6447 0010848 183.2334 176.8771 14.14908712862662
EWS-G2 (GOES 15)        
1 36411U 10008A   26189.65466885  .00000035  00000+0  00000+0 0  9994
2 36411   1.3332  82.5528 0005266  51.8387  91.2884  1.00268187 59852
COMS 1                  
1 36744U 10032A   26189.35480981 -.00000198  00000+0  00000+0 0  9991
2 36744   4.8563  75.1008 0011359  14.7290 313.4314  0.99169315 51294
FENGYUN 3B              
1 37214U 10059A   26189.95573125 -.00000392  00000+0 -17935-3 0  9998
2 37214  98.9609 236.0613 0023015 123.3966 359.2357 14.14844564810501
SUOMI NPP               
1 37849U 11061A   26189.97973350  .00000033  00000+0  36601-4 0  9994
2 37849  98.7956 130.7074 0000568 259.4010 100.7102 14.19521789761539
METEOSAT-10 (MSG-3)     
1 38552U 12035B   26189.85600444  .00000003  00000+0  00000+0 0  9992
2 38552   4.7199  60.9088 0001193  18.9773 155.1539  1.00269845 51072
METOP-B                 
1 38771U 12049A   26189.94041028  .00000055  00000+0  44876-4 0  9998
2 38771  98.6492 241.0044 0001081 294.2681  65.8384 14.21445184716353
INSAT-3D                
1 39216U 13038B   26189.88150559 -.00000326  00000+0  00000+0 0  9993
2 39216   1.9789  82.2705 0000513  69.6620 221.7652  1.00271695 47297
FENGYUN 3C              
1 39260U 13052A   26189.95255832  .00000055  00000+0  49312-4 0  9998
2 39260  98.4993 162.8294 0013952 324.9965  35.0292 14.15759881661647
METEOR-M 2              
1 40069U 14037A   26189.96646262  .00000098  00000+0  64091-4 0  9991
2 40069  98.5130 164.9345 0005525 346.4764  13.6265 14.21468468622412
HIMAWARI-8              
1 40267U 14060A   26189.88384560 -.00000262  00000+0  00000+0 0  9997
2 40267   0.0340 282.2788 0000840 203.5232 259.8728  1.00269902 42976
FENGYUN 2G              
1 40367U 14090A   26189.83497212 -.00000290  00000+0  00000+0 0  9996
2 40367   5.6900  72.5590 0004007 150.4757 103.7449  1.00263286 42215
METEOSAT-11 (MSG-4)     
1 40732U 15034A   26189.78653126  .00000073  00000+0  00000+0 0  9991
2 40732   3.2540  70.9760 0002263 351.5341 156.6363  1.00269859  7430
ELEKTRO-L 2             
1 41105U 15074A   26189.42539329 -.00000107  00000+0  00000+0 0  9998
2 41105   6.7437  70.2631 0000693 230.4230 124.3160  1.00273098 38717
SENTINEL-3A             
1 41335U 16011A   26189.95682812  .00000049  00000+0  38312-4 0  9995
2 41335  98.6239 257.0268 0001402  92.1258 268.0083 14.26738595541163
INSAT-3DR               
1 41752U 16054A   26189.91618714 -.00000063  00000+0  00000+0 0  9996
2 41752   0.0533  89.1958 0010521 181.3413  60.1525  1.00272097 36031
HIMAWARI-9              
1 41836U 16064A   26189.88384560  .00000000  00000+0  00000+0 0  9995
2 41836   0.0189  30.1650 0002233 142.4769 213.1400  1.00272459 35425
GOES 16                 
1 41866U 16071A   26189.90655237 -.00000077  00000+0  00000+0 0  9996
2 41866   0.3915  85.5987 0000497  81.5281 341.3995  1.00271303 35326
FENGYUN 4A              
1 41882U 16077A   26190.23688694 -.00000345  00000+0  00000+0 0  9999
2 41882   2.3752  80.0426 0008403 158.8219 257.3741  1.00271492 35152
CYGFM05                 
1 41884U 16078A   26189.91327744  .00018419  00000+0  24088-3 0  9997
2 41884  34.9557 116.6186 0007211 337.4680  22.5727 15.57638566532143
CYGFM04                 
1 41885U 16078B   26189.94219906  .00023427  00000+0  25118-3 0  9991
2 41885  34.9319  82.9929 0005251  16.2168 343.8725 15.62789942532402
CYGFM02                 
1 41886U 16078C   26189.96353422  .00028420  00000+0  26776-3 0  9995
2 41886  34.9400  76.7259 0005991  20.6151 339.4817 15.66010645532586
CYGFM01                 
1 41887U 16078D   26189.89229103  .00018843  00000+0  23987-3 0  9995
2 41887  34.9386 117.6352 0007146 331.1338  28.8991 15.58347320532092
CYGFM08                 
1 41888U 16078E   26189.94142726  .00021644  00000+0  24693-3 0  9995
2 41888  34.9421  96.2986 0007378   4.9476 355.1322 15.61190986532376
CYGFM07                 
1 41890U 16078G   26189.89917186  .00021780  00000+0  24760-3 0  9998
2 41890  34.9441  84.9024 0005600  16.9234 343.1678 15.61296732532398
CYGFM03                 
1 41891U 16078H   26189.93425086  .00021249  00000+0  24169-3 0  9990
2 41891  34.9394  86.5997 0005639   2.7033 357.3722 15.61285351532375
